NORAD_CAT_ID,OBJECT_NAME,OBJECT_TYPE,EPOCH,MEAN_MOTION,ECCENTRICITY,INCLINATION,RA_OF_ASC_NODE,ARG_OF_PERICENTER,MEAN_ANOMALY,BSTAR,MEAN_MOTION_DOT,MEAN_MOTION_DDOT,TLE_LINE0,TLE_LINE1,TLE_LINE2,SEMIMAJOR_AXIS,PERIOD,APOGEE,PERIGEE,DECAYED
55413.0,STARLINK-5060,PAYLOAD,2023-04-18 17:10:47,15.69932636,0.0003033,70.0003,233.1199,274.3124,85.7725,3.3587e-05,3.829e-05,0.0,0 STARLINK-5060,1 55413U 23014Y   23108.71582621  .00003829  00000-0  33587-4 0  9996,2 55413  70.0003 233.1199 0003033 274.3124  85.7725 15.69932636 12298,6737.227,91.724,361.135,357.048,0.0
55413.0,STARLINK-5060,PAYLOAD,2023-04-19 11:32:12,15.69329949,0.0004177,70.001,230.971,281.926,78.1467,-0.0013674,-0.00157704,0.0,0 STARLINK-5060,1 55413U 23014Y   23109.48070282 -.00157704  00000-0 -13674-2 0  9993,2 55413  70.0010 230.9710 0004177 281.9260  78.1467 15.69329949 12415,6738.952,91.759,363.631,358.002,0.0
55413.0,STARLINK-5060,PAYLOAD,2023-04-19 17:39:35,15.6894347,0.0003208,70.0008,230.2547,270.8648,89.218,-0.0021014,-0.00236158,0.0,0 STARLINK-5060,1 55413U 23014Y   23109.73582830 -.00236158  00000-0 -21014-2 0  9996,2 55413  70.0008 230.2547 0003208 270.8648  89.2180 15.68943470 12453,6740.058,91.782,364.085,359.761,0.0
55413.0,STARLINK-5060,PAYLOAD,2023-04-20 14:00:01,15.66637948,0.0003389,70.0008,227.8802,275.1859,186.5854,-0.0091973,-0.00871525,0.0,0 STARLINK-5060,1 55413U 23014Y   23110.58334491 -.00871525  00000-0 -91973-2 0  9993,2 55413  70.0008 227.8802 0003389 275.1859 186.5854 15.66637948  1300,6746.669,91.917,370.821,366.248,0.0
55413.0,STARLINK-5060,PAYLOAD,2023-04-20 16:00:00,15.66471639,0.0003262,70.0009,227.647,274.7968,296.8012,-0.009063,-0.00854748,0.0,0 STARLINK-5060,1 55413U 23014Y   23110.66667824 -.00854748  00000-0 -90630-2 0  9998,2 55413  70.0009 227.6470 0003262 274.7968 296.8012 15.66471639 12605,6747.147,91.926,371.213,366.811,0.0
55413.0,STARLINK-5060,PAYLOAD,2023-04-20 22:00:00,15.66037048,0.0003224,70.0006,226.948,273.9075,266.8693,-0.01034,-0.00962519,0.0,0 STARLINK-5060,1 55413U 23014Y   23110.91667824 -.00962519  00000-0 -10340-1 0  9991,2 55413  70.0006 226.9480 0003224 273.9075 266.8693 15.66037048  1302,6748.395,91.952,372.436,368.084,0.0
55413.0,STARLINK-5060,PAYLOAD,2023-04-21 06:00:00,15.65365632,0.0003372,70.001,226.0169,265.8861,353.139,-0.01005,-0.00915169,0.0,0 STARLINK-5060,1 55413U 23014Y   23111.25001157 -.00915169  00000-0 -10050-1 0  9997,2 55413  70.0010 226.0169 0003372 265.8861 353.1390 15.65365632 12699,6750.324,91.991,374.466,369.913,0.0
55413.0,STARLINK-5060,PAYLOAD,2023-04-21 14:00:01,15.6468066,0.0003424,70.0012,225.0866,272.1827,64.3233,-0.0099066,-0.00880902,0.0,0 STARLINK-5060,1 55413U 23014Y   23111.58334491 -.00880902  00000-0 -99066-2 0  9994,2 55413  70.0012 225.0866 0003424 272.1827  64.3233 15.64680660  1308,6752.294,92.032,376.471,371.847,0.0
55413.0,STARLINK-5060,PAYLOAD,2023-04-21 22:00:00,15.64071528,0.0003423,70.0006,224.1571,272.533,140.6359,-0.011024,-0.00949937,0.0,0 STARLINK-5060,1 55413U 23014Y   23111.91667824 -.00949937  00000-0 -11024-1 0  9991,2 55413  70.0006 224.1571 0003423 272.5330 140.6359 15.64071528 12795,6754.047,92.067,378.224,373.6,0.0
55413.0,STARLINK-5060,PAYLOAD,2023-04-22 00:00:02,15.63883962,0.0003254,70.0008,223.9248,269.6431,252.6472,-0.010616,-0.00911593,0.0,0 STARLINK-5060,1 55413U 23014Y   23112.00002315 -.00911593  00000-0 -10616-1 0  9993,2 55413  70.0008 223.9248 0003254 269.6431 252.6472 15.63883962  1303,6754.587,92.078,378.65,374.254,0.0
55413.0,STARLINK-5060,PAYLOAD,2023-04-22 14:00:01,15.62721402,0.0003279,70.0006,222.301,271.7886,292.4114,-0.010634,-0.00875564,0.0,0 STARLINK-5060,1 55413U 23014Y   23112.58334491 -.00875564  00000-0 -10634-1 0  9996,2 55413  70.0006 222.3010 0003279 271.7886 292.4114 15.62721402  1300,6757.937,92.147,382.018,377.586,0.0
55413.0,STARLINK-5060,PAYLOAD,2023-04-22 22:00:01,15.62119271,0.0003328,70.0004,221.3742,270.8741,7.7065,-0.012051,-0.00960533,0.0,0 STARLINK-5060,1 55413U 23014Y   23112.91668981 -.00960533  00000-0 -12051-1 0  9993,2 55413  70.0004 221.3742 0003328 270.8741   7.7065 15.62119271  1301,6759.673,92.182,383.788,379.289,0.0
55413.0,STARLINK-5060,PAYLOAD,2023-04-23 14:00:01,15.60771002,0.000361,70.0006,219.5239,273.0463,151.8062,-0.011657,-0.00888592,0.0,0 STARLINK-5060,1 55413U 23014Y   23113.58334491 -.00888592  00000-0 -11657-1 0  9998,2 55413  70.0006 219.5239 0003610 273.0463 151.8062 15.60771002  1305,6763.566,92.262,387.872,382.989,0.0
55413.0,STARLINK-5060,PAYLOAD,2023-04-23 22:00:00,15.6015837,0.0003512,70.0,218.5997,273.4605,223.3621,-0.012853,-0.0095062,0.0,0 STARLINK-5060,1 55413U 23014Y   23113.91667824 -.00950620  00000-0 -12853-1 0  9995,2 55413  70.0000 218.5997 0003512 273.4605 223.3621 15.60158370 13106,6765.336,92.298,389.577,384.825,0.0
55413.0,STARLINK-5060,PAYLOAD,2023-04-24 14:00:01,15.58805102,0.0003629,70.0002,216.7544,272.1808,6.2841,-0.01226,-0.00868646,0.0,0 STARLINK-5060,1 55413U 23014Y   23114.58334491 -.00868646  00000-0 -12260-1 0  9998,2 55413  70.0002 216.7544 0003629 272.1808   6.2841 15.58805102  1306,6769.251,92.378,393.573,388.66,0.0
55413.0,STARLINK-5060,PAYLOAD,2023-04-25 06:00:00,15.57546845,0.0003522,70.0,214.9127,270.725,146.2176,-0.013824,-0.00928043,0.0,0 STARLINK-5060,1 55413U 23014Y   23115.25001157 -.00928043  00000-0 -13824-1 0  9998,2 55413  70.0000 214.9127 0003522 270.7250 146.2176 15.57546845 13313,6772.896,92.453,397.147,392.376,0.0
55413.0,STARLINK-5060,PAYLOAD,2023-04-25 14:00:01,15.56843108,0.000344,69.9996,213.9932,275.2973,209.8061,-0.013036,-0.00858653,0.0,0 STARLINK-5060,1 55413U 23014Y   23115.58335648 -.00858653  00000-0 -13036-1 0  9993,2 55413  69.9996 213.9932 0003440 275.2973 209.8061 15.56843108  1304,6774.937,92.495,399.133,394.472,0.0
55413.0,STARLINK-5060,PAYLOAD,2023-04-26 14:00:01,15.54889852,0.0003374,69.9997,211.24,270.3525,54.2168,-0.014063,-0.00861272,0.0,0 STARLINK-5060,1 55413U 23014Y   23116.58334491 -.00861272  00000-0 -14063-1 0  9991,2 55413  69.9997 211.2400 0003374 270.3525  54.2168 15.54889852  1305,6780.61,92.611,404.763,400.187,0.0
55413.0,STARLINK-5060,PAYLOAD,2023-04-27 00:00:00,15.54070116,0.0003211,69.9995,210.0951,268.2974,227.3336,-0.014462,-0.00859555,0.0,0 STARLINK-5060,1 55413U 23014Y   23117.00001157 -.00859555  00000-0 -14462-1 0  9993,2 55413  69.9995 210.0951 0003211 268.2974 227.3336 15.54070116  1300,6782.994,92.66,407.037,402.681,0.0
55413.0,STARLINK-5060,PAYLOAD,2023-04-27 06:00:02,15.53642806,0.0003286,69.9997,209.409,266.4307,187.2897,-0.016308,-0.00945459,0.0,0 STARLINK-5060,1 55413U 23014Y   23117.25002315 -.00945459  00000-0 -16308-1 0  9997,2 55413  69.9997 209.4090 0003286 266.4307 187.2897 15.53642806 13624,6784.238,92.685,408.332,403.873,0.0
55413.0,STARLINK-5060,PAYLOAD,2023-04-27 14:00:01,15.52935428,0.0003123,69.9994,208.4949,272.8431,244.2794,-0.015157,-0.00863935,0.0,0 STARLINK-5060,1 55413U 23014Y   23117.58335648 -.00863935  00000-0 -15157-1 0  9990,2 55413  69.9994 208.4949 0003123 272.8431 244.2794 15.52935428  1308,6786.298,92.728,410.282,406.043,0.0
55413.0,STARLINK-5060,PAYLOAD,2023-04-28 06:00:02,15.51521855,0.0003354,69.9998,206.6695,266.9329,14.6117,-0.0073927,-0.00416767,0.0,0 STARLINK-5060,1 55413U 23014Y   23118.25002315 -.00416767  00000-0 -73927-2 0  9994,2 55413  69.9998 206.6695 0003354 266.9329  14.6117 15.51521855 13783,6790.419,92.812,414.562,410.007,0.0
55413.0,STARLINK-5060,PAYLOAD,2023-04-28 14:00:01,15.51195031,0.0003498,69.9997,205.7582,273.3419,69.226,0.00069795,0.00041003,0.0,0 STARLINK-5060,1 55413U 23014Y   23118.58334491  .00041003  00000-0  69795-3 0  9997,2 55413  69.9997 205.7582 0003498 273.3419  69.2260 15.51195031 13832,6791.373,92.832,415.613,410.862,0.0
55413.0,STARLINK-5060,PAYLOAD,2023-04-29 06:00:00,15.51215322,0.0003673,69.9999,203.9353,266.2235,198.1714,0.00012564,7.22e-05,0.0,0 STARLINK-5060,1 55413U 23014Y   23119.25001157  .00007220  00000-0  12564-3 0  9997,2 55413  69.9999 203.9353 0003673 266.2235 198.1714 15.51215322 13935,6791.314,92.83,415.673,410.684,0.0
55413.0,STARLINK-5060,PAYLOAD,2023-04-29 14:00:01,15.51201359,0.0003694,69.9999,203.0239,272.4649,252.9016,0.0006813,0.00040026,0.0,0 STARLINK-5060,1 55413U 23014Y   23119.58335648  .00040026  00000-0  68130-3 0  9999,2 55413  69.9999 203.0239 0003694 272.4649 252.9016 15.51201359  1307,6791.354,92.831,415.728,410.711,0.0
55413.0,STARLINK-5060,PAYLOAD,2023-04-30 14:00:01,15.51205886,0.0003642,69.9999,200.29,272.124,75.9194,0.00058919,0.00034574,0.0,0 STARLINK-5060,1 55413U 23014Y   23120.58334491  .00034574  00000-0  58919-3 0  9991,2 55413  69.9999 200.2900 0003642 272.1240  75.9194 15.51205886 14143,6791.341,92.831,415.68,410.733,0.0
55413.0,STARLINK-5060,PAYLOAD,2023-05-01 00:00:00,15.51192425,0.0003672,70.0001,199.1508,266.5821,247.6092,0.00074995,0.00044084,0.0,0 STARLINK-5060,1 55413U 23014Y   23121.00001157  .00044084  00000-0  74995-3 0  9998,2 55413  70.0001 199.1508 0003672 266.5821 247.6092 15.51192425 14201,6791.38,92.832,415.739,410.752,0.0
55413.0,STARLINK-5060,PAYLOAD,2023-05-01 08:37:25,15.51217629,0.0003734,69.9973,198.1689,266.9886,93.0873,2.8025e-05,1.481e-05,0.0,0 STARLINK-5060,1 55413U 23014Y   23121.35931922  .00001481  00000-0  28025-4 0  9996,2 55413  69.9973 198.1689 0003734 266.9886  93.0873 15.51217629 14269,6791.307,92.83,415.708,410.636,0.0
55413.0,STARLINK-5060,PAYLOAD,2023-05-01 13:15:59,15.51218168,0.0003729,69.9973,197.64,266.9489,93.1271,2.7994e-05,1.479e-05,0.0,0 STARLINK-5060,1 55413U 23014Y   23121.55277335  .00001479  00000-0  27994-4 0  9990,2 55413  69.9973 197.6400 0003729 266.9489  93.1271 15.51218168 15237,6791.305,92.83,415.703,410.638,0.0
55413.0,STARLINK-5060,PAYLOAD,2023-05-01 16:21:42,15.51221115,0.0003614,69.9979,197.2885,265.8602,94.2171,3.5333e-05,1.911e-05,0.0,0 STARLINK-5060,1 55413U 23014Y   23121.68174063  .00001911  00000-0  35333-4 0  9995,2 55413  69.9979 197.2885 0003614 265.8602  94.2171 15.51221115 15253,6791.297,92.83,415.616,410.707,0.0
